STARLINK-30316          
1 57673U 23124L   23332.37102393  .00005337  00000+0  26902-3 0  9990
2 57673  53.0551 105.9505 0001728 135.5248 224.5886 15.18708720 15954
STARLINK-30314          
1 57674U 23124M   23332.52455222 -.00006934  00000+0 -31529-3 0  9997
2 57674  53.0560 105.4835 0001384  96.1489 263.9663 15.18702917 15911
STARLINK-30317          
1 57675U 23124N   23332.39514447 -.00001616  00000+0 -61777-4 0  9999
2 57675  53.0567 106.1021 0001065  97.3306 262.7809 15.18717026 16255
STARLINK-30313          
1 57676U 23124P   23331.71073856 -.00000962  00000+0 -30641-4 0  9998
2 57676  53.0543 108.9504 0001606  86.7443 273.3735 15.18720778 16154
STARLINK-30303          
1 57677U 23124Q   23332.36661875  .00005624  00000+0  28256-3 0  9991
2 57677  53.0559 105.9347 0001880  55.3844 304.7327 15.18719080 16111
STARLINK-30320          
1 57678U 23124R   23332.52015080  .00041860  00000+0  19912-2 0  9991
2 57678  53.0552 105.4599 0002552 156.0186 204.0927 15.18795027 16274
STARLINK-30321          
1 57679U 23124S   23331.78533389  .00040218  00000+0  19171-2 0  9999
2 57679  53.0536 108.7042 0001663  66.7756 293.3414 15.18742062 16169
STARLINK-30283          
1 57680U 23124T   23332.52235408 -.00001703  00000+0 -65937-4 0  9996
2 57680  53.0568 104.7708 0001356  51.7016 308.4100 15.18696680 16280
STARLINK-30273          
1 57681U 23124U   23332.51798935  .00038980  00000+0  18581-2 0  9991
2 57681  53.0555 105.4414 0001297 111.4400 248.6733 15.18756073 16273
STARLINK-30297          
1 57682U 23124V   23331.70635138  .00010604  00000+0  51924-3 0  9999
2 57682  53.0536 108.9234 0001461  86.7215 273.3946 15.18702472 16154
STARLINK-30295          
1 57683U 23124W   23331.75679059 -.00018067  00000+0 -84713-3 0  9990
2 57683  53.0541 105.6661 0001044 101.5205 258.5907 15.18703432 16206
PROGRESS-MS 24          
1 57691U 23125A   23331.44745773  .00021005  00000+0  37730-3 0  9994
2 57691  51.6403 239.9148 0000994 337.9095  22.1851 15.49829499427106
CAPELLA-11 (ACADIA)     
1 57693U 23126A   23331.91444279  .00008623  00000+0  12534-2 0  9991
2 57693  53.0118 239.0906 0006200 186.5693 173.5202 14.76591759 14161
JILIN-1 KUANFU 02A      
1 57696U 23127A   23332.47500746  .00010352  00000+0  62254-3 0  9996
2 57696  97.5900  57.1166 0011773 324.8227  35.2225 15.10986522 14382
CREW DRAGON 7           
1 57697U 23128A   23331.44745773  .00021005  00000+0  37730-3 0  9993
2 57697  51.6403 239.9148 0000994 337.9095  22.1851 15.49829499427102
STARLINK-30288          
1 57698U 23129A   23332.42920528  .00031369  00000+0  23250-2 0  9992
2 57698  43.0011 322.3199 0000881 271.5256  88.5485 15.02566335 15460
STARLINK-30347          
1 57699U 23129B   23332.41142676  .00066715  00000+0  33878-2 0  9992
2 57699  43.0027 312.7977 0001217 259.4525 100.6185 15.16036306 15573
STARLINK-30332          
1 57700U 23129C   23332.35940689  .00038156  00000+0  28207-2 0  9996
2 57700  43.0007 322.6561 0000404 271.7708  88.3088 15.02584440 15318
STARLINK-30345          
1 57701U 23129D   23332.01383471  .00038151  00000+0  28231-2 0  9992
2 57701  43.0016 325.2283 0000539 295.2054  64.8732 15.02547098 15035
STARLINK-30333          
1 57702U 23129E   23332.07365341  .00034383  00000+0  25470-2 0  9990
2 57702  43.0014 324.8176 0000422 250.2057 109.8740 15.02549039 15402
STARLINK-30336          
1 57703U 23129F   23332.40934906  .00022153  00000+0  16486-2 0  9996
2 57703  43.0006 323.0333 0001019 212.8608 147.2171 15.02563203 15154
STARLINK-30346          
1 57704U 23129G   23332.06698772  .00032360  00000+0  23986-2 0  9991
2 57704  43.0011 324.7639 0000908 225.6764 134.4004 15.02550674 15262
STARLINK-30342          
1 57705U 23129H   23332.42255979  .00037092  00000+0  27429-2 0  9993
2 57705  43.0016 322.2717 0000844 211.1295 148.9497 15.02583634 15466
STARLINK-30337          
1 57706U 23129J   23332.08096457  .00169089  00000+0  47019-2 0  9999
2 57706  42.9992 311.2389 0012899 143.9642 216.2085 15.35401906 15427
STARLINK-30327          
1 57707U 23129K   23332.38517942  .00035724  00000+0  19172-2 0  9997
2 57707  42.9996 315.2143 0001158 221.9071 138.1687 15.14341542 15407
STARLINK-30315          
1 57708U 23129L   23332.05699620  .00032649  00000+0  24196-2 0  9991
2 57708  43.0014 324.6898 0000932 227.1451 132.9313 15.02553775 15409
STARLINK-30287          
1 57709U 23129M   23332.46251639  .00039196  00000+0  28953-2 0  9990
2 57709  43.0015 322.5745 0001016 199.8746 160.2057 15.02602935 15463
STARLINK-30335          
1 57710U 23129N   23332.38714241  .00007889  00000+0  59791-3 0  9995
2 57710  43.0015 322.8658 0000809 244.3778 115.6981 15.02565906 15456
STARLINK-30318          
1 57711U 23129P   23332.08795688  .00036959  00000+0  27350-2 0  9992
2 57711  43.0011 324.0606 0000656 275.7771  84.2996 15.02558600 15170
STARLINK-30348          
1 57712U 23129Q   23332.44921260  .00031402  00000+0  23277-2 0  9992
2 57712  43.0017 322.4700 0000783 267.7556  92.3197 15.02561981 15468
