OBJECT_NAME,OBJECT_ID,EPOCH,MEAN_MOTION,ECCENTRICITY,INCLINATION,RA_OF_ASC_NODE,ARG_OF_PERICENTER,MEAN_ANOMALY,EPHEMERIS_TYPE,CLASSIFICATION_TYPE,NORAD_CAT_ID,ELEMENT_SET_NO,REV_AT_EPOCH,BSTAR,MEAN_MOTION_DOT,MEAN_MOTION_DDOT
STARLINK-30316,2023-124L,2023-11-28T08:54:16.467552,15.18708720,.0001728,53.0551,105.9505,135.5248,224.5886,0,U,57673,999,1595,.26902E-3,.5337E-4,0
STARLINK-30314,2023-124M,2023-11-28T12:35:21.311808,15.18702917,.0001384,53.0560,105.4835,96.1489,263.9663,0,U,57674,999,1591,-.31529E-3,-.6934E-4,0
STARLINK-30317,2023-124N,2023-11-28T09:29:00.482208,15.18717026,.0001065,53.0567,106.1021,97.3306,262.7809,0,U,57675,999,1625,-.61777E-4,-.1616E-4,0
STARLINK-30313,2023-124P,2023-11-27T17:03:27.811584,15.18720778,.0001606,53.0543,108.9504,86.7443,273.3735,0,U,57676,999,1615,-.30641E-4,-.962E-5,0
STARLINK-30303,2023-124Q,2023-11-28T08:47:55.860000,15.18719080,.000188,53.0559,105.9347,55.3844,304.7327,0,U,57677,999,1611,.28256E-3,.5624E-4,0
STARLINK-30320,2023-124R,2023-11-28T12:29:01.029120,15.18795027,.0002552,53.0552,105.4599,156.0186,204.0927,0,U,57678,999,1627,.19912E-2,.4186E-3,0
STARLINK-30321,2023-124S,2023-11-27T18:50:52.848096,15.18742062,.0001663,53.0536,108.7042,66.7756,293.3414,0,U,57679,999,1616,.19171E-2,.40218E-3,0
STARLINK-30283,2023-124T,2023-11-28T12:32:11.392512,15.18696680,.0001356,53.0568,104.7708,51.7016,308.4100,0,U,57680,999,1628,-.65937E-4,-.1703E-4,0
STARLINK-30273,2023-124U,2023-11-28T12:25:54.279840,15.18756073,.0001297,53.0555,105.4414,111.4400,248.6733,0,U,57681,999,1627,.18581E-2,.3898E-3,0
STARLINK-30297,2023-124V,2023-11-27T16:57:08.759232,15.18702472,.0001461,53.0536,108.9234,86.7215,273.3946,0,U,57682,999,1615,.51924E-3,.10604E-3,0
STARLINK-30295,2023-124W,2023-11-27T18:09:46.706976,15.18703432,.0001044,53.0541,105.6661,101.5205,258.5907,0,U,57683,999,1620,-.84713E-3,-.18067E-3,0
PROGRESS-MS 24,2023-125A,2023-11-27T10:44:20.347872,15.49829499,.0000994,51.6403,239.9148,337.9095,22.1851,0,U,57691,999,42710,.3773E-3,.21005E-3,0
CAPELLA-11 (ACADIA),2023-126A,2023-11-27T21:56:47.857056,14.76591759,.00062,53.0118,239.0906,186.5693,173.5202,0,U,57693,999,1416,.12534E-2,.8623E-4,0
JILIN-1 KUANFU 02A,2023-127A,2023-11-28T11:24:00.644544,15.10986522,.0011773,97.5900,57.1166,324.8227,35.2225,0,U,57696,999,1438,.62254E-3,.10352E-3,0
CREW DRAGON 7,2023-128A,2023-11-27T10:44:20.347872,15.49829499,.0000994,51.6403,239.9148,337.9095,22.1851,0,U,57697,999,42710,.3773E-3,.21005E-3,0
STARLINK-30288,2023-129A,2023-11-28T10:18:03.336192,15.02566335,.0000881,43.0011,322.3199,271.5256,88.5485,0,U,57698,999,1546,.2325E-2,.31369E-3,0
STARLINK-30347,2023-129B,2023-11-28T09:52:27.272064,15.16036306,.0001217,43.0027,312.7977,259.4525,100.6185,0,U,57699,999,1557,.33878E-2,.66715E-3,0
STARLINK-30332,2023-129C,2023-11-28T08:37:32.755296,15.02584440,.0000404,43.0007,322.6561,271.7708,88.3088,0,U,57700,999,1531,.28207E-2,.38156E-3,0
STARLINK-30345,2023-129D,2023-11-28T00:19:55.318944,15.02547098,.0000539,43.0016,325.2283,295.2054,64.8732,0,U,57701,999,1503,.28231E-2,.38151E-3,0
STARLINK-30333,2023-129E,2023-11-28T01:46:03.654624,15.02549039,.0000422,43.0014,324.8176,250.2057,109.8740,0,U,57702,999,1540,.2547E-2,.34383E-3,0
STARLINK-30336,2023-129F,2023-11-28T09:49:27.758784,15.02563203,.0001019,43.0006,323.0333,212.8608,147.2171,0,U,57703,999,1515,.16486E-2,.22153E-3,0
STARLINK-30346,2023-129G,2023-11-28T01:36:27.739008,15.02550674,.0000908,43.0011,324.7639,225.6764,134.4004,0,U,57704,999,1526,.23986E-2,.3236E-3,0
STARLINK-30342,2023-129H,2023-11-28T10:08:29.165856,15.02583634,.0000844,43.0016,322.2717,211.1295,148.9497,0,U,57705,999,1546,.27429E-2,.37092E-3,0
STARLINK-30337,2023-129J,2023-11-28T01:56:35.338848,15.35401906,.0012899,42.9992,311.2389,143.9642,216.2085,0,U,57706,999,1542,.47019E-2,.169089E-2,0
STARLINK-30327,2023-129K,2023-11-28T09:14:39.501888,15.14341542,.0001158,42.9996,315.2143,221.9071,138.1687,0,U,57707,999,1540,.19172E-2,.35724E-3,0
STARLINK-30315,2023-129L,2023-11-28T01:22:04.471680,15.02553775,.0000932,43.0014,324.6898,227.1451,132.9313,0,U,57708,999,1540,.24196E-2,.32649E-3,0
STARLINK-30287,2023-129M,2023-11-28T11:06:01.416096,15.02602935,.0001016,43.0015,322.5745,199.8746,160.2057,0,U,57709,999,1546,.28953E-2,.39196E-3,0
STARLINK-30335,2023-129N,2023-11-28T09:17:29.104224,15.02565906,.0000809,43.0015,322.8658,244.3778,115.6981,0,U,57710,999,1545,.59791E-3,.7889E-4,0
STARLINK-30318,2023-129P,2023-11-28T02:06:39.474432,15.02558600,.0000656,43.0011,324.0606,275.7771,84.2996,0,U,57711,999,1517,.2735E-2,.36959E-3,0
STARLINK-30348,2023-129Q,2023-11-28T10:46:51.968640,15.02561981,.0000783,43.0017,322.4700,267.7556,92.3197,0,U,57712,999,1546,.23277E-2,.31402E-3,0
